[{"OBJECT_NAME":"DAMPE","OBJECT_ID":"2015-078A","EPOCH":"2026-03-09T23:55:00.527232","MEAN_MOTION":15.30502084,"ECCENTRICITY":0.00138005,"INCLINATION":97.4588,"RA_OF_ASC_NODE":73.9866,"ARG_OF_PERICENTER":70.6942,"MEAN_ANOMALY":289.579,"EPHEMERIS_TYPE":0,"CLASSIFICATION_TYPE":"U","NORAD_CAT_ID":41173,"ELEMENT_SET_NO":999,"REV_AT_EPOCH":56937,"BSTAR":9.1158173e-5,"MEAN_MOTION_DOT":2.617e-5,"MEAN_MOTION_DDOT":0},{"OBJECT_NAME":"STARLINK-35518","OBJECT_ID":"2025-243X","EPOCH":"2026-03-09T21:20:37.354272","MEAN_MOTION":15.30210079,"ECCENTRICITY":7.045e-5,"INCLINATION":53.1593,"RA_OF_ASC_NODE":244.3763,"ARG_OF_PERICENTER":76.0193,"MEAN_ANOMALY":284.0886,"EPHEMERIS_TYPE":0,"CLASSIFICATION_TYPE":"U","NORAD_CAT_ID":66197,"ELEMENT_SET_NO":999,"REV_AT_EPOCH":2068,"BSTAR":0.001093018,"MEAN_MOTION_DOT":0.00032163,"MEAN_MOTION_DDOT":0}]
